SKYSAT-A                
1 39418U 13066C   26116.86379719  .00003256  00000+0  18866-3 0  9994
2 39418  97.3864 167.8953 0022969 129.4745 230.8522 15.12670835680726
SKYSAT-B                
1 40072U 14037D   26116.81572572  .00001448  00000+0  16488-3 0  9997
2 40072  98.3799  72.8711 0007024  85.5787 274.6230 14.87887480638320
SKYSAT-C1               
1 41601U 16040C   26116.81045918  .00009435  00000+0  27627-3 0  9992
2 41601  96.9620 151.3356 0002528 163.7148 196.4178 15.35420325549988
SKYSAT-C4               
1 41771U 16058B   26116.61034311  .00019137  00000+0  38062-3 0  9997
2 41771  96.9223 140.5921 0003513  95.4945 264.6707 15.46973085537491
SKYSAT-C5               
1 41772U 16058C   26116.83474716  .00008181  00000+0  25311-3 0  9999
2 41772  97.0527 159.7810 0004952 109.8137 250.3641 15.33715803535878
SKYSAT-C2               
1 41773U 16058D   26116.78108215  .00013977  00000+0  34182-3 0  9997
2 41773  97.0218 140.8457 0002144 195.8599 164.2582 15.40898965537139
SKYSAT-C3               
1 41774U 16058E   26116.67276730  .00025617  00000+0  45153-3 0  9998
2 41774  96.9097 149.5598 0002747 104.3240 255.8318 15.50393154538127
SKYSAT-C11              
1 42987U 17068A   26116.94874440  .00029380  00000+0  43500-3 0  9994
2 42987  97.4285 263.6756 0001551 139.8418 220.2951 15.55238190475273
SKYSAT-C10              
1 42988U 17068B   26116.83089115  .00010590  00000+0  32710-3 0  9994
2 42988  97.4423 253.2370 0001642 110.1799 249.9620 15.33722482474481
SKYSAT-C9               
1 42989U 17068C   26116.93720619  .00013898  00000+0  34666-3 0  9993
2 42989  97.4345 253.8038 0007545 327.8482  32.2303 15.40288586474869
SKYSAT-C8               
1 42990U 17068D   26116.87815468  .00012117  00000+0  34857-3 0  9990
2 42990  97.4440 252.8937 0001186 111.9194 248.2176 15.35935702474434
SKYSAT-C7               
1 42991U 17068E   26116.93497924  .00011881  00000+0  34238-3 0  9991
2 42991  97.4453 253.9374 0004662 293.1847  66.8905 15.35878337474508
SKYSAT-C6               
1 42992U 17068F   26116.93791230  .00010642  00000+0  33059-3 0  9993
2 42992  97.4487 254.0789 0001746 359.8705   0.2537 15.33540020474462
SKYSAT-C12              
1 43797U 18099AR  26116.96422721  .00017686  00000+0  34849-3 0  9994
2 43797  96.9312 142.3139 0003441  14.2875 345.8473 15.47260899413939
SKYSAT-C13              
1 43802U 18099AW  26116.86679371  .00157968  00000+0  58568-3 0  9997
2 43802  96.9279 164.9358 0003049  98.5515 261.6103 15.87693804414780
FLOCK 4Q-16             
1 58271U 23174R   26116.91089100  .00022527  00000+0  44635-3 0  9996
2 58271  97.3827 203.9227 0005223 359.1388   0.9852 15.47052843137649
