[{"OBJECT_NAME":"SKYSAT-A","OBJECT_ID":"2013-066C","EPOCH":"2026-04-26T20:43:52.077216","MEAN_MOTION":15.12670835,"ECCENTRICITY":0.00229692,"INCLINATION":97.3864,"RA_OF_ASC_NODE":167.8953,"ARG_OF_PERICENTER":129.4745,"MEAN_ANOMALY":230.8522,"EPHEMERIS_TYPE":0,"CLASSIFICATION_TYPE":"U","NORAD_CAT_ID":39418,"ELEMENT_SET_NO":999,"REV_AT_EPOCH":68072,"BSTAR":0.00018866034,"MEAN_MOTION_DOT":3.256e-5,"MEAN_MOTION_DDOT":0},{"OBJECT_NAME":"SKYSAT-B","OBJECT_ID":"2014-037D","EPOCH":"2026-04-26T19:34:38.702208","MEAN_MOTION":14.8788748,"ECCENTRICITY":0.00070243,"INCLINATION":98.3799,"RA_OF_ASC_NODE":72.8711,"ARG_OF_PERICENTER":85.5787,"MEAN_ANOMALY":274.623,"EPHEMERIS_TYPE":0,"CLASSIFICATION_TYPE":"U","NORAD_CAT_ID":40072,"ELEMENT_SET_NO":999,"REV_AT_EPOCH":63832,"BSTAR":0.00016487899,"MEAN_MOTION_DOT":1.448e-5,"MEAN_MOTION_DDOT":0},{"OBJECT_NAME":"SKYSAT-C1","OBJECT_ID":"2016-040C","EPOCH":"2026-04-26T19:27:03.673152","MEAN_MOTION":15.35420325,"ECCENTRICITY":0.00025284,"INCLINATION":96.962,"RA_OF_ASC_NODE":151.3356,"ARG_OF_PERICENTER":163.7148,"MEAN_ANOMALY":196.4178,"EPHEMERIS_TYPE":0,"CLASSIFICATION_TYPE":"U","NORAD_CAT_ID":41601,"ELEMENT_SET_NO":999,"REV_AT_EPOCH":54998,"BSTAR":0.00027627254,"MEAN_MOTION_DOT":9.435e-5,"MEAN_MOTION_DDOT":0},{"OBJECT_NAME":"SKYSAT-C4","OBJECT_ID":"2016-058B","EPOCH":"2026-04-26T14:38:53.644704","MEAN_MOTION":15.46973085,"ECCENTRICITY":0.00035134,"INCLINATION":96.9223,"RA_OF_ASC_NODE":140.5921,"ARG_OF_PERICENTER":95.4945,"MEAN_ANOMALY":264.6707,"EPHEMERIS_TYPE":0,"CLASSIFICATION_TYPE":"U","NORAD_CAT_ID":41771,"ELEMENT_SET_NO":999,"REV_AT_EPOCH":53749,"BSTAR":0.00038061768,"MEAN_MOTION_DOT":0.00019137,"MEAN_MOTION_DDOT":0},{"OBJECT_NAME":"SKYSAT-C5","OBJECT_ID":"2016-058C","EPOCH":"2026-04-26T20:02:02.154624","MEAN_MOTION":15.33715803,"ECCENTRICITY":0.00049525,"INCLINATION":97.0527,"RA_OF_ASC_NODE":159.781,"ARG_OF_PERICENTER":109.8137,"MEAN_ANOMALY":250.3641,"EPHEMERIS_TYPE":0,"CLASSIFICATION_TYPE":"U","NORAD_CAT_ID":41772,"ELEMENT_SET_NO":999,"REV_AT_EPOCH":53587,"BSTAR":0.0002531124,"MEAN_MOTION_DOT":8.181e-5,"MEAN_MOTION_DDOT":0},{"OBJECT_NAME":"SKYSAT-C2","OBJECT_ID":"2016-058D","EPOCH":"2026-04-26T18:44:45.497760","MEAN_MOTION":15.40898965,"ECCENTRICITY":0.00021444,"INCLINATION":97.0218,"RA_OF_ASC_NODE":140.8457,"ARG_OF_PERICENTER":195.8599,"MEAN_ANOMALY":164.2582,"EPHEMERIS_TYPE":0,"CLASSIFICATION_TYPE":"U","NORAD_CAT_ID":41773,"ELEMENT_SET_NO":999,"REV_AT_EPOCH":53713,"BSTAR":0.00034182379,"MEAN_MOTION_DOT":0.00013977,"MEAN_MOTION_DDOT":0},{"OBJECT_NAME":"SKYSAT-C3","OBJECT_ID":"2016-058E","EPOCH":"2026-04-26T16:08:47.094720","MEAN_MOTION":15.50393154,"ECCENTRICITY":0.00027477,"INCLINATION":96.9097,"RA_OF_ASC_NODE":149.5598,"ARG_OF_PERICENTER":104.324,"MEAN_ANOMALY":255.8318,"EPHEMERIS_TYPE":0,"CLASSIFICATION_TYPE":"U","NORAD_CAT_ID":41774,"ELEMENT_SET_NO":999,"REV_AT_EPOCH":53812,"BSTAR":0.00045152742,"MEAN_MOTION_DOT":0.00025617,"MEAN_MOTION_DDOT":0},{"OBJECT_NAME":"SKYSAT-C11","OBJECT_ID":"2017-068A","EPOCH":"2026-04-26T22:46:11.516160","MEAN_MOTION":15.5523819,"ECCENTRICITY":0.00015513,"INCLINATION":97.4285,"RA_OF_ASC_NODE":263.6756,"ARG_OF_PERICENTER":139.8418,"MEAN_ANOMALY":220.2951,"EPHEMERIS_TYPE":0,"CLASSIFICATION_TYPE":"U","NORAD_CAT_ID":42987,"ELEMENT_SET_NO":999,"REV_AT_EPOCH":47527,"BSTAR":0.00043500089,"MEAN_MOTION_DOT":0.0002938,"MEAN_MOTION_DDOT":0},{"OBJECT_NAME":"SKYSAT-C10","OBJECT_ID":"2017-068B","EPOCH":"2026-04-26T19:56:28.995360","MEAN_MOTION":15.33722482,"ECCENTRICITY":0.00016426,"INCLINATION":97.4423,"RA_OF_ASC_NODE":253.237,"ARG_OF_PERICENTER":110.1799,"MEAN_ANOMALY":249.962,"EPHEMERIS_TYPE":0,"CLASSIFICATION_TYPE":"U","NORAD_CAT_ID":42988,"ELEMENT_SET_NO":999,"REV_AT_EPOCH":47448,"BSTAR":0.00032709598,"MEAN_MOTION_DOT":0.0001059,"MEAN_MOTION_DDOT":0},{"OBJECT_NAME":"SKYSAT-C9","OBJECT_ID":"2017-068C","EPOCH":"2026-04-26T22:29:34.614816","MEAN_MOTION":15.40288586,"ECCENTRICITY":0.00075454,"INCLINATION":97.4345,"RA_OF_ASC_NODE":253.8038,"ARG_OF_PERICENTER":327.8482,"MEAN_ANOMALY":32.2303,"EPHEMERIS_TYPE":0,"CLASSIFICATION_TYPE":"U","NORAD_CAT_ID":42989,"ELEMENT_SET_NO":999,"REV_AT_EPOCH":47486,"BSTAR":0.0003466648,"MEAN_MOTION_DOT":0.00013898,"MEAN_MOTION_DDOT":0},{"OBJECT_NAME":"SKYSAT-C8","OBJECT_ID":"2017-068D","EPOCH":"2026-04-26T21:04:32.564352","MEAN_MOTION":15.35935702,"ECCENTRICITY":0.00011866,"INCLINATION":97.444,"RA_OF_ASC_NODE":252.8937,"ARG_OF_PERICENTER":111.9194,"MEAN_ANOMALY":248.2176,"EPHEMERIS_TYPE":0,"CLASSIFICATION_TYPE":"U","NORAD_CAT_ID":42990,"ELEMENT_SET_NO":999,"REV_AT_EPOCH":47443,"BSTAR":0.00034857357,"MEAN_MOTION_DOT":0.00012117,"MEAN_MOTION_DDOT":0},{"OBJECT_NAME":"SKYSAT-C7","OBJECT_ID":"2017-068E","EPOCH":"2026-04-26T22:26:22.206336","MEAN_MOTION":15.35878337,"ECCENTRICITY":0.00046627,"INCLINATION":97.4453,"RA_OF_ASC_NODE":253.9374,"ARG_OF_PERICENTER":293.1847,"MEAN_ANOMALY":66.8905,"EPHEMERIS_TYPE":0,"CLASSIFICATION_TYPE":"U","NORAD_CAT_ID":42991,"ELEMENT_SET_NO":999,"REV_AT_EPOCH":47450,"BSTAR":0.0003423775,"MEAN_MOTION_DOT":0.00011881,"MEAN_MOTION_DDOT":0},{"OBJECT_NAME":"SKYSAT-C6","OBJECT_ID":"2017-068F","EPOCH":"2026-04-26T22:30:35.622720","MEAN_MOTION":15.3354002,"ECCENTRICITY":0.00017466,"INCLINATION":97.4487,"RA_OF_ASC_NODE":254.0789,"ARG_OF_PERICENTER":359.8705,"MEAN_ANOMALY":0.2537,"EPHEMERIS_TYPE":0,"CLASSIFICATION_TYPE":"U","NORAD_CAT_ID":42992,"ELEMENT_SET_NO":999,"REV_AT_EPOCH":47446,"BSTAR":0.00033059073,"MEAN_MOTION_DOT":0.00010642,"MEAN_MOTION_DDOT":0},{"OBJECT_NAME":"SKYSAT-C12","OBJECT_ID":"2018-099AR","EPOCH":"2026-04-26T23:08:29.230944","MEAN_MOTION":15.47260899,"ECCENTRICITY":0.00034413,"INCLINATION":96.9312,"RA_OF_ASC_NODE":142.3139,"ARG_OF_PERICENTER":14.2875,"MEAN_ANOMALY":345.8473,"EPHEMERIS_TYPE":0,"CLASSIFICATION_TYPE":"U","NORAD_CAT_ID":43797,"ELEMENT_SET_NO":999,"REV_AT_EPOCH":41393,"BSTAR":0.00034848508,"MEAN_MOTION_DOT":0.00017686,"MEAN_MOTION_DDOT":0},{"OBJECT_NAME":"SKYSAT-C13","OBJECT_ID":"2018-099AW","EPOCH":"2026-04-26T20:48:10.976544","MEAN_MOTION":15.87693804,"ECCENTRICITY":0.00030495,"INCLINATION":96.9279,"RA_OF_ASC_NODE":164.9358,"ARG_OF_PERICENTER":98.5515,"MEAN_ANOMALY":261.6103,"EPHEMERIS_TYPE":0,"CLASSIFICATION_TYPE":"U","NORAD_CAT_ID":43802,"ELEMENT_SET_NO":999,"REV_AT_EPOCH":41478,"BSTAR":0.00058568079,"MEAN_MOTION_DOT":0.00157968,"MEAN_MOTION_DDOT":0},{"OBJECT_NAME":"FLOCK 4Q-16","OBJECT_ID":"2023-174R","EPOCH":"2026-04-26T21:51:40.982400","MEAN_MOTION":15.47052843,"ECCENTRICITY":0.00052231,"INCLINATION":97.3827,"RA_OF_ASC_NODE":203.9227,"ARG_OF_PERICENTER":359.1388,"MEAN_ANOMALY":0.9852,"EPHEMERIS_TYPE":0,"CLASSIFICATION_TYPE":"U","NORAD_CAT_ID":58271,"ELEMENT_SET_NO":999,"REV_AT_EPOCH":13764,"BSTAR":0.00044635442,"MEAN_MOTION_DOT":0.00022527,"MEAN_MOTION_DDOT":0}]
